[{"OBJECT_NAME":"STARLINK-35115","OBJECT_ID":"2025-211P","EPOCH":"2026-03-09T16:32:13.175232","MEAN_MOTION":15.05661545,"ECCENTRICITY":0.00011083,"INCLINATION":97.6026,"RA_OF_ASC_NODE":114.0949,"ARG_OF_PERICENTER":127.5347,"MEAN_ANOMALY":232.5981,"EPHEMERIS_TYPE":0,"CLASSIFICATION_TYPE":"U","NORAD_CAT_ID":65665,"ELEMENT_SET_NO":999,"REV_AT_EPOCH":2704,"BSTAR":0.00031925082,"MEAN_MOTION_DOT":4.55e-5,"MEAN_MOTION_DDOT":0},{"OBJECT_NAME":"UNKNOWN","OBJECT_ID":"","EPOCH":"2026-03-08T12:59:39.172704","MEAN_MOTION":15.0131728,"ECCENTRICITY":0.00204305,"INCLINATION":86.3534,"RA_OF_ASC_NODE":358.469,"ARG_OF_PERICENTER":121.5673,"MEAN_ANOMALY":238.7558,"EPHEMERIS_TYPE":0,"CLASSIFICATION_TYPE":"U","NORAD_CAT_ID":270086,"ELEMENT_SET_NO":999,"REV_AT_EPOCH":9441,"BSTAR":0.0053525659,"MEAN_MOTION_DOT":0.00069778,"MEAN_MOTION_DDOT":0}]
